[{"OBJECT_NAME":"YAOGAN-31 03B","OBJECT_ID":"2021-014C","EPOCH":"2026-03-10T00:24:01.951200","MEAN_MOTION":13.45442112,"ECCENTRICITY":0.01685902,"INCLINATION":63.4006,"RA_OF_ASC_NODE":93.5208,"ARG_OF_PERICENTER":0.5266,"MEAN_ANOMALY":359.5908,"EPHEMERIS_TYPE":0,"CLASSIFICATION_TYPE":"U","NORAD_CAT_ID":47693,"ELEMENT_SET_NO":999,"REV_AT_EPOCH":24733,"BSTAR":0.00044455044,"MEAN_MOTION_DOT":1.97e-6,"MEAN_MOTION_DDOT":0},{"OBJECT_NAME":"ONEWEB-0258","OBJECT_ID":"2021-060K","EPOCH":"2026-03-09T22:16:48.513792","MEAN_MOTION":13.16587429,"ECCENTRICITY":0.00015128,"INCLINATION":87.9011,"RA_OF_ASC_NODE":248.5239,"ARG_OF_PERICENTER":93.7316,"MEAN_ANOMALY":266.3988,"EPHEMERIS_TYPE":0,"CLASSIFICATION_TYPE":"U","NORAD_CAT_ID":48976,"ELEMENT_SET_NO":999,"REV_AT_EPOCH":22653,"BSTAR":0.0048981777,"MEAN_MOTION_DOT":1.886e-5,"MEAN_MOTION_DDOT":0}]
